OMNI-L1                 
1 52157U 22033A   24282.79416243  .00004719  00000+0  62825-3 0  9990
2 52157  97.8881   2.7988 0006880 121.6057 238.5827 14.80131779136221
ENMAP                   
1 52159U 22033C   24283.18563862  .00003566  00000+0  53828-3 0  9998
2 52159  97.9772   3.2782 0001671  84.0326 276.1073 14.74933840135845
ARCSAT-1                
1 52161U 22033E   24283.20339416  .00025537  00000+0  73491-3 0  9990
2 52161  97.3157   2.0422 0005672 270.8787  89.1807 15.35744609140594
MP42                    
1 52169U 22033N   24283.24929699  .00848477  32255-3  20837-2 0  9992
2 52169  97.3084  15.9763 0006547 251.2056 108.8510 15.96096066141524
BRO-7                   
1 52174U 22033T   24283.54316434  .00048876  00000+0  91971-3 0  9990
2 52174  97.3176   8.0829 0007656 220.5219 139.5463 15.48369777141022
GLOBAL-18               
1 52196U 22034B   24283.18744435  .00064147  00000+0  16029-2 0  9990
2 52196  52.9889 292.0256 0011779  15.8711 344.2658 15.39499781142050
GLOBAL-20               
1 52197U 22034C   24283.43686628  .00063189  00000+0  93418-3 0  9991
2 52197  52.9872 269.8556 0011530  56.3091 303.9016 15.54671698142386
GAOFEN-3 03             
1 52200U 22035A   24283.49978121  .00000475  00000+0  15727-3 0  9991
2 52200  98.4146 289.8431 0000843  94.6566 265.4720 14.42215778132114
DAQI 1                  
1 52257U 22039A   24283.49453860  .00002300  00000+0  51186-3 0  9993
2 52257  98.2171 219.6783 0001952 346.7217  13.3931 14.57878138132248
JILIN-1 GAOFEN 4A       
1 52388U 22046A   24283.54178619  .00043758  00000+0  16473-2 0  9999
2 52388  97.4979  10.4817 0012294  61.9546 298.2934 15.26906338135169
JILIN-1 GAOFEN 3D05     
1 52390U 22046C   24283.54351000  .00036752  00000+0  15142-2 0  9997
2 52390  97.4942  12.0634 0001663 123.2821 236.8575 15.23998173135303
JILIN-1 GAOFEN 3D07     
1 52392U 22046E   24283.53443818  .00040705  00000+0  15505-2 0  9993
2 52392  97.5021  13.2692 0002010 182.6728 177.4500 15.26601360135336
BRO-6                   
1 52422U 22047AE  24283.46063697  .00029069  00000+0  10956-2 0  9998
2 52422  97.3875   1.8822 0007630 120.8882 239.3108 15.27003796136525
JILIN-1 GAOFEN 3D27     
1 52444U 22048B   24283.50633994  .00033733  00000+0  14396-2 0  9996
2 52444  97.5904   2.9196 0009671  84.8778 275.3562 15.22786533134591
JILIN-1 GAOFEN 3D28     
1 52445U 22048C   24283.48012442  .00041359  00000+0  17595-2 0  9990
2 52445  97.5874   2.6522 0010915  89.7590 270.4897 15.22834219134599
PLANETUM1               
1 52738U 22057G   24283.36780427  .00291960  00000+0  29794-2 0  9996
2 52738  97.5724  55.1393 0000434 216.6995 143.4234 15.64133729132251
CONNECTA T1.1           
1 52739U 22057H   24283.17058136  .00058147  00000+0  18832-2 0  9990
2 52739  97.5905  46.7296 0007347 126.2087 233.9834 15.31789746131619
VIGORIDE-3              
1 52760U 22057AE  24282.85006962  .00010808  00000+0  51169-3 0  9991
2 52760  97.5884  42.3662 0011686 114.7774 245.4677 15.19464985131326
ION SCV-006             
1 52761U 22057AF  24282.88479695  .00023178  00000+0  91258-3 0  9999
2 52761  97.5409  42.3680 0018555 152.2704 207.9527 15.25464455131474
SHERPA-AC1              
1 52763U 22057AH  24282.87491159  .00019020  00000+0  79642-3 0  9993
2 52763  97.5928  44.4166 0011265 108.8235 251.4225 15.23539238131447
PLATFORM-1              
1 52770U 22057AQ  24282.90785012  .00040349  00000+0  11826-2 0  9996
2 52770  97.5870  49.5603 0009817  92.8307 267.4060 15.35042321131815
OMNI-L2                 
1 52771U 22057AR  24283.51168237  .00004068  00000+0  51400-3 0  9990
2 52771  97.5247  14.5939 0007448 164.7420 195.4020 14.82361305129732
STEP CUBE LAB-II        
1 52897U 22065D   24283.56617630  .00004513  00000+0  92687-3 0  9996
2 52897  98.1380  62.4002 0009420 148.3228 211.8541 14.61088725121524
RANDEV                  
1 52898U 22065E   24283.56628567  .00004935  00000+0  10079-2 0  9990
2 52898  98.1374  62.5241 0008671 149.7058 210.4646 14.61301185121256
SNUGLITE-II             
1 52899U 22065F   24282.86752281  .00006692  00000+0  13527-2 0  9997
2 52899  98.1366  61.9717 0008219 152.0786 208.0858 14.61657049120869
MIMAN                   
1 52900U 22065G   24283.37492342  .00004260  00000+0  89236-3 0  9996
2 52900  98.1398  61.8061 0008373 145.3711 214.8036 14.60218948120506
STARLINK-4362           
1 53043U 22077A   24283.08694151 -.00000930  00000+0 -67812-4 0  9997
2 53043  97.6549 102.2878 0001561 111.9030 248.2360 15.01252107122704
LARES-2                 
1 53105U 22080A   24282.33322970  .00000012  00000+0  00000+0 0  9994
2 53105  70.1358 156.8959 0004893 112.4594 247.6782  6.38965209 52251
GREENCUBE               
1 53106U 22080B   24281.96479996 -.00000003  00000+0  00000+0 0  9995
2 53106  70.1376 153.3488 0008243  81.8360 278.3235  6.42557544 52511
ROBUSTA-1F (MTCUBE 2)   
1 53109U 22080E   24280.99694736 -.00000003  00000+0  00000+0 0  9991
2 53109  70.1223 153.2525 0008230  63.9176 296.2329  6.42583934 52344
STARLINK-4410           
1 53204U 22084R   24282.74033165  .00001171  00000+0  95777-4 0  9995
2 53204  97.6559 341.9403 0003156 200.5445 159.5653 15.01262902122418
COSMOS 2558             
1 53323U 22089A   24282.85273367  .00054124  00000+0  15818-2 0  9996
2 53323  97.2419  18.2122 0007805 150.8328 209.3353 15.35076502122669
TECMS                   
1 53346U 22090A   24283.50843232  .00013984  00000+0  64008-3 0  9995
2 53346  97.3867 355.3402 0005138  97.6042 262.5777 15.20607551121215
2022-096B               
1 53371U 22096B   24282.63333169  .07485774  25625-5  10542-2 0  9991
2 53371  97.3516 205.6431 0006862 190.2948 169.8209 16.34975537121917
2022-096C               
1 53372U 22096C   24282.30644579  .01169083  71155-3  22776-2 0  9991
2 53372  97.3654 203.8134 0007798 128.9935 231.2040 16.00362498121752
DONGPO 04               
1 53451U 22098H   24283.54990949  .00038045  00000+0  14874-2 0  9992
2 53451  97.5375  24.2828 0004784  66.8330 293.3412 15.25742626119893
DONGPO 02               
1 53452U 22098J   24283.54503366  .00033690  00000+0  14251-2 0  9996
2 53452  97.5255  22.8873 0005636  77.0990 283.0876 15.23114581119877
DONGPO 01               
1 53453U 22098K   24283.55488828  .00034391  00000+0  14649-2 0  9993
2 53453  97.5315  23.4173 0005169  80.2509 279.9311 15.22876290119877
STARLINK-4400           
1 53468U 22099D   24282.90172104 -.00004806  00000+0 -36979-3 0  9996
2 53468  97.6542  42.0964 0002365 195.4165 164.6988 15.01261687118686
STARLINK-4621           
1 53676U 22105AE  24283.17797111 -.00002417  00000+0 -18373-3 0  9990
2 53676  97.6562 162.3705 0001318 131.4130 228.7208 15.01248304116021
SHERPA-LTC2             
1 53754U 22107BG  24283.17626510  .00019684  00000+0  10746-2 0  9990
2 53754  53.2388 290.6995 0433868 314.9397  41.7131 14.59062875112247
CENTISPACE-1 S3         
1 53757U 22108A   24283.56522647  .00002621  00000+0  58414-3 0  9991
2 53757  53.5319  78.5059 0010917 139.5927 220.5860 14.59695429111564
CENTISPACE-1 S4         
1 53758U 22108B   24283.50704486  .00003142  00000+0  68747-3 0  9998
2 53758  53.5292  78.6433 0010771 127.0820 233.1140 14.60037121111555
BLUEWALKER-3            
1 53807U 22111AL  24282.99174231  .00020241  00000+0  72000-3 0  9994
2 53807  53.2348  28.2454 0008957  81.8098 278.3919 15.28954815115620
YUNHAI-1 03             
1 53877U 22115A   24283.49629849  .00001261  00000+0  47553-3 0  9997
2 53877  98.5290 279.2678 0002409  79.1447 281.0008 14.33121900107341
CENTISPACE-1 S5         
1 54020U 22126A   24283.49345909  .00004276  00000+0  91193-3 0  9990
2 54020  54.9972 152.9467 0015680 119.5558 240.7000 14.60482196106985
CENTISPACE-1 S6         
1 54021U 22126B   24283.48304720  .00004008  00000+0  85954-3 0  9997
2 54021  54.9973 152.8982 0017386 121.8649 238.4039 14.60339689106973
OTB-3-GAZELLE           
1 54023U 22127A   24282.90360992  .00000836  00000+0  26639-3 0  9999
2 54023  98.3528 274.7485 0012015 246.3367 113.6562 14.42257556105515
ASO-S                   
1 54029U 22129A   24283.54696842  .00000972  00000+0  25379-3 0  9995
2 54029  98.2727 286.8311 0014303 179.7538 180.3667 14.51553605106099
HJ-2E                   
1 54035U 22132A   24283.51516407  .00029468  00000+0  11423-2 0  9996
2 54035  97.3865 288.0768 0010660 204.2564 155.8174 15.26040983110766
COSMOS 2561             
1 54109U 22137A   24282.85360024  .00046535  00000+0  75373-3 0  9990
2 54109  97.0046 356.6543 0011920  82.5790 277.6818 15.52581097111222
GONETS-M 23             
1 54150U 22139A   24283.53513077  .00000055  00000+0  32622-3 0  9999
2 54150  82.5119  10.8516 0022460 124.6056 235.7146 12.42875913 89166
GONETS-M 24             
1 54151U 22139B   24283.50898617  .00000047  00000+0  26592-3 0  9993
2 54151  82.5037  10.3473 0017478 134.4470 225.8043 12.42877702 89169
GONETS-M 25             
1 54152U 22139C   24283.49468924  .00000052  00000+0  30189-3 0  9999
2 54152  82.5102  10.7121 0021265 133.1209 227.1654 12.42874116 89161
SKIF-D                  
1 54153U 22139D   24282.09340796  .00000046  00000+0  00000+0 0  9999
2 54153  89.9857  96.7917 0007174  25.6554 334.4359  5.00435621 33239
MATS                    
1 54227U 22147A   24283.24252442  .00012231  00000+0  10158-2 0  9995
2 54227  97.6713 279.7913 0013459 105.3849 254.8862 14.98827260105272
JILIN-1 GAOFEN 03D54    
1 54254U 22155D   24283.53233741  .00036177  00000+0  14986-2 0  9995
2 54254  97.5700  34.7712 0009855  54.0093 306.2056 15.23777811105057
EOS-6 (OCEANSAT-3)      
1 54361U 22158A   24283.52839669  .00002023  00000+0  56822-3 0  9996
2 54361  98.3535  19.0232 0000718  96.5820 263.5454 14.47003669 98801
ASTROCAST-0304          
1 54367U 22158G   24283.51261152  .00044133  00000+0  10970-2 0  9998
2 54367  97.4419  27.7626 0007565  30.9214 329.2476 15.40147438104312
